STARLINK-2531           
1 48483U 21040BH  25288.85169046  .00000957  00000+0  83129-4 0  9995
2 48483  53.0535 131.8187 0001417  89.2134 270.9018 15.06392592244514
STARLINK-2696           
1 48484U 21040BJ  25288.83336806  .00672076  19012-3  20976-2 0  9997
2 48484  53.0282  38.8390 0009935 328.9742 121.2540 15.90899325  6004
STARLINK-2500           
1 48485U 21040BK  25288.85906061  .00000905  00000+0  79646-4 0  9995
2 48485  53.0534 131.7897 0001289  94.6399 265.4737 15.06399546244515
STARLINK-2494           
1 48487U 21040BM  25288.86643546  .00001002  00000+0  86191-4 0  9996
2 48487  53.0536 131.7562 0001108  84.0190 276.0925 15.06387049244523
STARLINK-2063           
1 48553U 21041A   25288.64433780  .00000018  00000+0  20099-4 0  9995
2 48553  53.0494  62.7528 0001320  87.2910 272.8230 15.06404553243348
STARLINK-2139           
1 48554U 21041B   25288.68124772 -.00000491  00000+0 -14097-4 0  9996
2 48554  53.0567  62.8897 0001101  85.3520 274.7595 15.06391342243349
STARLINK-2145           
1 48555U 21041C   25288.81297541  .00000961  00000+0  83394-4 0  9993
2 48555  53.0547  71.9928 0001179  86.7600 273.3524 15.06403233243220
STARLINK-2151           
1 48556U 21041D   25288.80191625  .00000175  00000+0  30628-4 0  9998
2 48556  53.0554  72.0411 0001255  88.1646 271.9487 15.06408268243224
STARLINK-2155           
1 48557U 21041E   25288.80652343  .00002336  00000+0  17568-3 0  9996
2 48557  53.0534  62.0224 0001113  95.1909 264.9207 15.06394006243368
STARLINK-2166           
1 48558U 21041F   25288.33841757  .00000240  00000+0  35004-4 0  9992
2 48558  53.0558  64.1216 0001080  83.0141 277.0971 15.06395618242436
STARLINK-2187           
1 48562U 21041K   25288.78072037 -.00002522  00000+0 -15051-3 0  9999
2 48562  53.0553  62.1392 0000813 110.7826 249.3250 15.06397659243362
STARLINK-2188           
1 48563U 21041L   25288.66645955  .00003941  00000+0  28325-3 0  9994
2 48563  53.0537  62.6500 0001329  91.0656 269.0485 15.06410582243344
STARLINK-2190           
1 48564U 21041M   25288.79178432  .00007111  00000+0  49568-3 0  9995
2 48564  53.0538  62.0901 0001394  88.2355 271.8794 15.06410095243366
STARLINK-2214           
1 48566U 21041P   25288.67659032  .00001059  00000+0  89972-4 0  9993
2 48566  53.0549  72.5772 0001244  90.9340 269.1792 15.06402260243206
STARLINK-2217           
1 48568U 21041R   25288.76966767  .00003768  00000+0  27167-3 0  9997
2 48568  53.0516  62.1884 0001773  78.3172 281.8016 15.06405176243356
STARLINK-2219           
1 48569U 21041S   25288.66277178  .00001616  00000+0  12733-3 0  9991
2 48569  53.0547  62.6691 0001397  89.3786 270.7363 15.06403043243349
STARLINK-2220           
1 48570U 21041T   25288.78349109  .00003236  00000+0  23602-3 0  9997
2 48570  53.0529  72.1251 0001165  92.9309 267.1813 15.06399406243216
