[{"OBJECT_NAME":"STARLINK-2531","OBJECT_ID":"2021-040BH","EPOCH":"2025-10-15T20:26:26.055744","MEAN_MOTION":15.06392592,"ECCENTRICITY":0.0001417,"INCLINATION":53.0535,"RA_OF_ASC_NODE":131.8187,"ARG_OF_PERICENTER":89.2134,"MEAN_ANOMALY":270.9018,"EPHEMERIS_TYPE":0,"CLASSIFICATION_TYPE":"U","NORAD_CAT_ID":48483,"ELEMENT_SET_NO":999,"REV_AT_EPOCH":24451,"BSTAR":8.3129e-5,"MEAN_MOTION_DOT":9.57e-6,"MEAN_MOTION_DDOT":0},{"OBJECT_NAME":"STARLINK-2696","OBJECT_ID":"2021-040BJ","EPOCH":"2025-10-15T20:00:03.000384","MEAN_MOTION":15.90899325,"ECCENTRICITY":0.0009935,"INCLINATION":53.0282,"RA_OF_ASC_NODE":38.839,"ARG_OF_PERICENTER":328.9742,"MEAN_ANOMALY":121.254,"EPHEMERIS_TYPE":0,"CLASSIFICATION_TYPE":"U","NORAD_CAT_ID":48484,"ELEMENT_SET_NO":999,"REV_AT_EPOCH":600,"BSTAR":0.0020976,"MEAN_MOTION_DOT":0.00672076,"MEAN_MOTION_DDOT":0.00019012},{"OBJECT_NAME":"STARLINK-2500","OBJECT_ID":"2021-040BK","EPOCH":"2025-10-15T20:37:02.836704","MEAN_MOTION":15.06399546,"ECCENTRICITY":0.0001289,"INCLINATION":53.0534,"RA_OF_ASC_NODE":131.7897,"ARG_OF_PERICENTER":94.6399,"MEAN_ANOMALY":265.4737,"EPHEMERIS_TYPE":0,"CLASSIFICATION_TYPE":"U","NORAD_CAT_ID":48485,"ELEMENT_SET_NO":999,"REV_AT_EPOCH":24451,"BSTAR":7.9646e-5,"MEAN_MOTION_DOT":9.05e-6,"MEAN_MOTION_DDOT":0},{"OBJECT_NAME":"STARLINK-2494","OBJECT_ID":"2021-040BM","EPOCH":"2025-10-15T20:47:40.023744","MEAN_MOTION":15.06387049,"ECCENTRICITY":0.0001108,"INCLINATION":53.0536,"RA_OF_ASC_NODE":131.7562,"ARG_OF_PERICENTER":84.019,"MEAN_ANOMALY":276.0925,"EPHEMERIS_TYPE":0,"CLASSIFICATION_TYPE":"U","NORAD_CAT_ID":48487,"ELEMENT_SET_NO":999,"REV_AT_EPOCH":24452,"BSTAR":8.6191e-5,"MEAN_MOTION_DOT":1.002e-5,"MEAN_MOTION_DDOT":0},{"OBJECT_NAME":"STARLINK-2063","OBJECT_ID":"2021-041A","EPOCH":"2025-10-15T15:27:50.785920","MEAN_MOTION":15.06404553,"ECCENTRICITY":0.000132,"INCLINATION":53.0494,"RA_OF_ASC_NODE":62.7528,"ARG_OF_PERICENTER":87.291,"MEAN_ANOMALY":272.823,"EPHEMERIS_TYPE":0,"CLASSIFICATION_TYPE":"U","NORAD_CAT_ID":48553,"ELEMENT_SET_NO":999,"REV_AT_EPOCH":24334,"BSTAR":2.0099e-5,"MEAN_MOTION_DOT":1.8e-7,"MEAN_MOTION_DDOT":0},{"OBJECT_NAME":"STARLINK-2139","OBJECT_ID":"2021-041B","EPOCH":"2025-10-15T16:20:59.803008","MEAN_MOTION":15.06391342,"ECCENTRICITY":0.0001101,"INCLINATION":53.0567,"RA_OF_ASC_NODE":62.8897,"ARG_OF_PERICENTER":85.352,"MEAN_ANOMALY":274.7595,"EPHEMERIS_TYPE":0,"CLASSIFICATION_TYPE":"U","NORAD_CAT_ID":48554,"ELEMENT_SET_NO":999,"REV_AT_EPOCH":24334,"BSTAR":-1.4097e-5,"MEAN_MOTION_DOT":-4.91e-6,"MEAN_MOTION_DDOT":0},{"OBJECT_NAME":"STARLINK-2145","OBJECT_ID":"2021-041C","EPOCH":"2025-10-15T19:30:41.075424","MEAN_MOTION":15.06403233,"ECCENTRICITY":0.0001179,"INCLINATION":53.0547,"RA_OF_ASC_NODE":71.9928,"ARG_OF_PERICENTER":86.76,"MEAN_ANOMALY":273.3524,"EPHEMERIS_TYPE":0,"CLASSIFICATION_TYPE":"U","NORAD_CAT_ID":48555,"ELEMENT_SET_NO":999,"REV_AT_EPOCH":24322,"BSTAR":8.3394e-5,"MEAN_MOTION_DOT":9.61e-6,"MEAN_MOTION_DDOT":0},{"OBJECT_NAME":"STARLINK-2151","OBJECT_ID":"2021-041D","EPOCH":"2025-10-15T19:14:45.564000","MEAN_MOTION":15.06408268,"ECCENTRICITY":0.0001255,"INCLINATION":53.0554,"RA_OF_ASC_NODE":72.0411,"ARG_OF_PERICENTER":88.1646,"MEAN_ANOMALY":271.9487,"EPHEMERIS_TYPE":0,"CLASSIFICATION_TYPE":"U","NORAD_CAT_ID":48556,"ELEMENT_SET_NO":999,"REV_AT_EPOCH":24322,"BSTAR":3.0628e-5,"MEAN_MOTION_DOT":1.75e-6,"MEAN_MOTION_DDOT":0},{"OBJECT_NAME":"STARLINK-2155","OBJECT_ID":"2021-041E","EPOCH":"2025-10-15T19:21:23.624352","MEAN_MOTION":15.06394006,"ECCENTRICITY":0.0001113,"INCLINATION":53.0534,"RA_OF_ASC_NODE":62.0224,"ARG_OF_PERICENTER":95.1909,"MEAN_ANOMALY":264.9207,"EPHEMERIS_TYPE":0,"CLASSIFICATION_TYPE":"U","NORAD_CAT_ID":48557,"ELEMENT_SET_NO":999,"REV_AT_EPOCH":24336,"BSTAR":0.00017568,"MEAN_MOTION_DOT":2.336e-5,"MEAN_MOTION_DDOT":0},{"OBJECT_NAME":"STARLINK-2166","OBJECT_ID":"2021-041F","EPOCH":"2025-10-15T08:07:19.278048","MEAN_MOTION":15.06395618,"ECCENTRICITY":0.00010806,"INCLINATION":53.0558,"RA_OF_ASC_NODE":64.1216,"ARG_OF_PERICENTER":83.0141,"MEAN_ANOMALY":277.0971,"EPHEMERIS_TYPE":0,"CLASSIFICATION_TYPE":"U","NORAD_CAT_ID":48558,"ELEMENT_SET_NO":999,"REV_AT_EPOCH":24243,"BSTAR":3.5003778e-5,"MEAN_MOTION_DOT":2.4e-6,"MEAN_MOTION_DDOT":0},{"OBJECT_NAME":"STARLINK-2187","OBJECT_ID":"2021-041K","EPOCH":"2025-10-15T18:44:14.239968","MEAN_MOTION":15.06397659,"ECCENTRICITY":8.13e-5,"INCLINATION":53.0553,"RA_OF_ASC_NODE":62.1392,"ARG_OF_PERICENTER":110.7826,"MEAN_ANOMALY":249.325,"EPHEMERIS_TYPE":0,"CLASSIFICATION_TYPE":"U","NORAD_CAT_ID":48562,"ELEMENT_SET_NO":999,"REV_AT_EPOCH":24336,"BSTAR":-0.00015051,"MEAN_MOTION_DOT":-2.522e-5,"MEAN_MOTION_DDOT":0},{"OBJECT_NAME":"STARLINK-2188","OBJECT_ID":"2021-041L","EPOCH":"2025-10-15T15:59:42.105120","MEAN_MOTION":15.06410582,"ECCENTRICITY":0.0001329,"INCLINATION":53.0537,"RA_OF_ASC_NODE":62.65,"ARG_OF_PERICENTER":91.0656,"MEAN_ANOMALY":269.0485,"EPHEMERIS_TYPE":0,"CLASSIFICATION_TYPE":"U","NORAD_CAT_ID":48563,"ELEMENT_SET_NO":999,"REV_AT_EPOCH":24334,"BSTAR":0.00028325,"MEAN_MOTION_DOT":3.941e-5,"MEAN_MOTION_DDOT":0},{"OBJECT_NAME":"STARLINK-2190","OBJECT_ID":"2021-041M","EPOCH":"2025-10-15T19:00:10.165248","MEAN_MOTION":15.06410095,"ECCENTRICITY":0.0001394,"INCLINATION":53.0538,"RA_OF_ASC_NODE":62.0901,"ARG_OF_PERICENTER":88.2355,"MEAN_ANOMALY":271.8794,"EPHEMERIS_TYPE":0,"CLASSIFICATION_TYPE":"U","NORAD_CAT_ID":48564,"ELEMENT_SET_NO":999,"REV_AT_EPOCH":24336,"BSTAR":0.00049568,"MEAN_MOTION_DOT":7.111e-5,"MEAN_MOTION_DDOT":0},{"OBJECT_NAME":"STARLINK-2214","OBJECT_ID":"2021-041P","EPOCH":"2025-10-15T16:14:17.403648","MEAN_MOTION":15.0640226,"ECCENTRICITY":0.0001244,"INCLINATION":53.0549,"RA_OF_ASC_NODE":72.5772,"ARG_OF_PERICENTER":90.934,"MEAN_ANOMALY":269.1792,"EPHEMERIS_TYPE":0,"CLASSIFICATION_TYPE":"U","NORAD_CAT_ID":48566,"ELEMENT_SET_NO":999,"REV_AT_EPOCH":24320,"BSTAR":8.9972e-5,"MEAN_MOTION_DOT":1.059e-5,"MEAN_MOTION_DDOT":0},{"OBJECT_NAME":"STARLINK-2217","OBJECT_ID":"2021-041R","EPOCH":"2025-10-15T18:28:19.286688","MEAN_MOTION":15.06405176,"ECCENTRICITY":0.0001773,"INCLINATION":53.0516,"RA_OF_ASC_NODE":62.1884,"ARG_OF_PERICENTER":78.3172,"MEAN_ANOMALY":281.8016,"EPHEMERIS_TYPE":0,"CLASSIFICATION_TYPE":"U","NORAD_CAT_ID":48568,"ELEMENT_SET_NO":999,"REV_AT_EPOCH":24335,"BSTAR":0.00027167,"MEAN_MOTION_DOT":3.768e-5,"MEAN_MOTION_DDOT":0},{"OBJECT_NAME":"STARLINK-2219","OBJECT_ID":"2021-041S","EPOCH":"2025-10-15T15:54:23.481792","MEAN_MOTION":15.06403043,"ECCENTRICITY":0.0001397,"INCLINATION":53.0547,"RA_OF_ASC_NODE":62.6691,"ARG_OF_PERICENTER":89.3786,"MEAN_ANOMALY":270.7363,"EPHEMERIS_TYPE":0,"CLASSIFICATION_TYPE":"U","NORAD_CAT_ID":48569,"ELEMENT_SET_NO":999,"REV_AT_EPOCH":24334,"BSTAR":0.00012733,"MEAN_MOTION_DOT":1.616e-5,"MEAN_MOTION_DDOT":0},{"OBJECT_NAME":"STARLINK-2220","OBJECT_ID":"2021-041T","EPOCH":"2025-10-15T18:48:13.630176","MEAN_MOTION":15.06399406,"ECCENTRICITY":0.0001165,"INCLINATION":53.0529,"RA_OF_ASC_NODE":72.1251,"ARG_OF_PERICENTER":92.9309,"MEAN_ANOMALY":267.1813,"EPHEMERIS_TYPE":0,"CLASSIFICATION_TYPE":"U","NORAD_CAT_ID":48570,"ELEMENT_SET_NO":999,"REV_AT_EPOCH":24321,"BSTAR":0.00023602,"MEAN_MOTION_DOT":3.236e-5,"MEAN_MOTION_DDOT":0}]
